NORAD_CAT_ID,OBJECT_NAME,OBJECT_TYPE,EPOCH,MEAN_MOTION,ECCENTRICITY,INCLINATION,RA_OF_ASC_NODE,ARG_OF_PERICENTER,MEAN_ANOMALY,BSTAR,MEAN_MOTION_DOT,MEAN_MOTION_DDOT,TLE_LINE0,TLE_LINE1,TLE_LINE2,SEMIMAJOR_AXIS,PERIOD,APOGEE,PERIGEE,DECAYED
50161.0,STARLINK-3304,PAYLOAD,2022-05-16 22:00:00,15.0884245,0.0001932,53.2159,31.5387,38.9291,185.0893,-0.0023463,-0.00037439,0.0,0 STARLINK-3304,1 50161U 21125F   22136.91667824 -.00037439  00000-0 -23463-2 0  9999,2 50161  53.2159  31.5387 0001932  38.9291 185.0893 15.08842450  1309,6917.873000000001,95.437,541.0740000000002,538.401,0.0
50161.0,STARLINK-3304,PAYLOAD,2022-05-17 14:00:01,15.08827495,0.0001827,53.2152,28.5444,42.2359,205.0167,0.0019079,0.00030197,0.0,0 STARLINK-3304,1 50161U 21125F   22137.58335648  .00030197  00000-0  19079-2 0  9999,2 50161  53.2152  28.5444 0001827  42.2359 205.0167 15.08827495 25819,6917.919,95.438,541.048,538.52,0.0
50161.0,STARLINK-3304,PAYLOAD,2022-05-17 22:00:01,15.08840662,0.0002,53.2152,27.0496,41.5839,217.2706,-0.00034322,-5.747e-05,0.0,0 STARLINK-3304,1 50161U 21125F   22137.91668981 -.00005747  00000-0 -34322-3 0  9999,2 50161  53.2152  27.0496 0002000  41.5839 217.2706 15.08840662  1302,6917.878000000002,95.438,541.127,538.36,0.0
50161.0,STARLINK-3304,PAYLOAD,2022-05-18 06:00:00,15.08865387,0.0002005,53.2146,25.5532,38.5984,231.7915,-0.0023063,-0.00036832,0.0,0 STARLINK-3304,1 50161U 21125F   22138.25001157 -.00036832  00000-0 -23063-2 0  9991,2 50161  53.2146  25.5532 0002005  38.5984 231.7915 15.08865387 25918,6917.803000000001,95.436,541.055,538.281,0.0
50161.0,STARLINK-3304,PAYLOAD,2022-05-18 14:00:01,15.0882969,0.0001848,53.2146,24.055,43.8036,238.1973,0.0021138,0.00033504,0.0,0 STARLINK-3304,1 50161U 21125F   22138.58334491  .00033504  00000-0  21138-2 0  9999,2 50161  53.2146  24.0550 0001848  43.8036 238.1973 15.08829690  1302,6917.9119999999975,95.438,541.055,538.498,0.0
50161.0,STARLINK-3304,PAYLOAD,2022-05-18 22:00:00,15.08848996,0.0002028,53.2147,22.5601,41.7792,251.8182,-0.00336,-0.00053381,0.0,0 STARLINK-3304,1 50161U 21125F   22138.91667824 -.00053381  00000-0 -33600-2 0  9999,2 50161  53.2147  22.5601 0002028  41.7792 251.8182 15.08848996 26019,6917.853,95.437,541.121,538.315,0.0
50161.0,STARLINK-3304,PAYLOAD,2022-05-19 14:00:01,15.08802742,0.0001841,53.2145,19.5654,42.6863,274.1389,0.0022922,0.00036344,0.0,0 STARLINK-3304,1 50161U 21125F   22139.58335648  .00036344  00000-0  22922-2 0  9992,2 50161  53.2145  19.5654 0001841  42.6863 274.1389 15.08802742  1303,6917.994000000002,95.44,541.133,538.586,0.0
50161.0,STARLINK-3304,PAYLOAD,2022-05-19 22:00:00,15.08828259,0.000201,53.2146,18.0706,39.2834,289.0603,0.00039822,6.053e-05,0.0,0 STARLINK-3304,1 50161U 21125F   22139.91667824  .00006053  00000-0  39822-3 0  9995,2 50161  53.2146  18.0706 0002010  39.2834 289.0603 15.08828259 26161,6917.916,95.438,541.172,538.391,0.0
50161.0,STARLINK-3304,PAYLOAD,2022-05-20 14:00:01,15.0882096,0.0001945,53.2148,15.0758,44.0976,307.4263,0.0022575,0.00035805,0.0,0 STARLINK-3304,1 50161U 21125F   22140.58334491  .00035805  00000-0  22575-2 0  9994,2 50161  53.2148  15.0758 0001945  44.0976 307.4263 15.08820960  1301,6917.939,95.439,541.149,538.4580000000002,0.0
50161.0,STARLINK-3304,PAYLOAD,2022-05-20 22:00:00,15.08826401,0.0002099,53.215,13.581,39.9833,323.1314,-0.00022078,-3.799e-05,0.0,0 STARLINK-3304,1 50161U 21125F   22140.91667824 -.00003799  00000-0 -22078-3 0  9998,2 50161  53.2150  13.5810 0002099  39.9833 323.1314 15.08826401  1300,6917.922,95.438,541.239,538.335,0.0
50161.0,STARLINK-3304,PAYLOAD,2022-05-21 06:00:00,15.08861264,0.0002042,53.215,12.0842,36.0597,338.6304,-0.0032268,-0.00051308,0.0,0 STARLINK-3304,1 50161U 21125F   22141.25001157 -.00051308  00000-0 -32268-2 0  9997,2 50161  53.2150  12.0842 0002042  36.0597 338.6304 15.08861264 26361,6917.815,95.436,541.0930000000002,538.268,0.0
50161.0,STARLINK-3304,PAYLOAD,2022-05-21 14:00:01,15.08814209,0.0001855,53.2154,10.5863,39.9819,346.374,0.003738,0.00059664,0.0,0 STARLINK-3304,1 50161U 21125F   22141.58335648  .00059664  00000-0  37380-2 0  9999,2 50161  53.2154  10.5863 0001855  39.9819 346.3740 15.08814209  1305,6917.959,95.439,541.1080000000002,538.5409999999998,0.0
50161.0,STARLINK-3304,PAYLOAD,2022-05-21 22:00:00,15.08855574,0.0002041,53.2156,9.0916,36.0568,1.8317,-0.0018974,-0.00030372,0.0,0 STARLINK-3304,1 50161U 21125F   22141.91667824 -.00030372  00000-0 -18974-2 0  9995,2 50161  53.2156   9.0916 0002041  36.0568   1.8317 15.08855574 26474,6917.833000000001,95.437,541.11,538.286,0.0
50161.0,STARLINK-3304,PAYLOAD,2022-05-22 14:00:01,15.08815399,0.000186,53.2159,6.0969,39.8975,21.1811,0.00095631,0.00014954,0.0,0 STARLINK-3304,1 50161U 21125F   22142.58334491  .00014954  00000-0  95631-3 0  9992,2 50161  53.2159   6.0969 0001860  39.8975  21.1811 15.08815399  1303,6917.956,95.439,541.107,538.534,0.0
50161.0,STARLINK-3304,PAYLOAD,2022-05-22 22:00:01,15.08823209,0.0002043,53.2159,4.6024,35.7397,36.9794,0.00081994,0.00012779,0.0,0 STARLINK-3304,1 50161U 21125F   22142.91668981  .00012779  00000-0  81994-3 0  9993,2 50161  53.2159   4.6024 0002043  35.7397  36.9794 15.08823209 26621,6917.932,95.439,541.21,538.383,0.0
50161.0,STARLINK-3304,PAYLOAD,2022-05-23 14:00:01,15.08826358,0.0001957,53.216,1.6079,43.6272,52.1948,0.00036765,5.566e-05,0.0,0 STARLINK-3304,1 50161U 21125F   22143.58334491  .00005566  00000-0  36765-3 0  9995,2 50161  53.2160   1.6079 0001957  43.6272  52.1948 15.08826358  1300,6917.922,95.438,541.141,538.433,0.0
50161.0,STARLINK-3304,PAYLOAD,2022-05-23 22:00:01,15.08836702,0.0002099,53.2159,0.1133,38.7359,68.7676,0.00085585,0.00013358,0.0,0 STARLINK-3304,1 50161U 21125F   22143.91668981  .00013358  00000-0  85585-3 0  9998,2 50161  53.2159   0.1133 0002099  38.7359  68.7676 15.08836702  1307,6917.89,95.438,541.2080000000002,538.303,0.0
50161.0,STARLINK-3304,PAYLOAD,2022-05-24 06:00:02,15.0887442,0.0001985,53.2155,358.6161,37.6218,81.4719,-0.0041658,-0.00066043,0.0,0 STARLINK-3304,1 50161U 21125F   22144.25002315 -.00066043  00000-0 -41658-2 0  9992,2 50161  53.2155 358.6161 0001985  37.6218  81.4719 15.08874420 26823,6917.775,95.435,541.013,538.2669999999998,0.0
50161.0,STARLINK-3304,PAYLOAD,2022-05-24 14:00:01,15.08842194,0.0001806,53.2158,357.1189,40.6364,89.9981,-1.2537e-05,-4.88e-06,0.0,0 STARLINK-3304,1 50161U 21125F   22144.58334491 -.00000488  00000-0 -12537-4 0  9998,2 50161  53.2158 357.1189 0001806  40.6364  89.9981 15.08842194  1301,6917.874,95.437,540.988,538.489,0.0
50161.0,STARLINK-3304,PAYLOAD,2022-05-24 22:00:00,15.08814365,0.0001971,53.2155,355.6244,35.0708,107.1661,0.00089957,0.00014048,0.0,0 STARLINK-3304,1 50161U 21125F   22144.91667824  .00014048  00000-0  89957-3 0  9998,2 50161  53.2155 355.6244 0001971  35.0708 107.1661 15.08814365 26928,6917.959,95.439,541.187,538.46,0.0
50161.0,STARLINK-3304,PAYLOAD,2022-05-25 14:00:01,15.08818893,0.0001861,53.2153,352.63,42.7941,122.5972,0.0012112,0.0001903,0.0,0 STARLINK-3304,1 50161U 21125F   22145.58334491  .00019030  00000-0  12112-2 0  9997,2 50161  53.2153 352.6300 0001861  42.7941 122.5972 15.08818893  1309,6917.945,95.439,541.097,538.5219999999998,0.0
50161.0,STARLINK-3304,PAYLOAD,2022-05-25 19:37:46,15.08836853,0.0001857,53.2162,351.5775,43.089,317.0247,-1.1809000000000003e-05,-4.76e-06,0.0,0 STARLINK-3304,1 50161U 21125F   22145.81789932 -.00000476  00000-0 -11809-4 0  9997,2 50161  53.2162 351.5775 0001857  43.0890 317.0247 15.08836853 27057,6917.89,95.438,541.04,538.47,0.0
50161.0,STARLINK-3304,PAYLOAD,2022-05-25 21:13:09,15.08835622,0.0001797,53.2163,351.2808,47.993,312.1215,-1.8249e-05,-5.78e-06,0.0,0 STARLINK-3304,1 50161U 21125F   22145.88414025 -.00000578  00000-0 -18249-4 0  9990,2 50161  53.2163 351.2808 0001797  47.9930 312.1215 15.08835622 27541,6917.894,95.438,541.002,538.516,0.0
50161.0,STARLINK-3304,PAYLOAD,2022-05-26 06:45:28,15.0883385,0.0002027,53.2165,349.4951,40.8166,319.2977,7.3765e-05,8.86e-06,0.0,0 STARLINK-3304,1 50161U 21125F   22146.28158041  .00000886  00000-0  73765-4 0  9992,2 50161  53.2165 349.4951 0002027  40.8166 319.2977 15.08833850 27602,6917.899,95.438,541.1659999999998,538.362,0.0
50161.0,STARLINK-3304,PAYLOAD,2022-05-26 22:00:00,15.0881767,0.0002102,53.2145,346.6461,36.5239,175.2038,0.0017641999999999,0.00027884,0.0,0 STARLINK-3304,1 50161U 21125F   22146.91667824  .00027884  00000-0  17642-2 0  9993,2 50161  53.2145 346.6461 0002102  36.5239 175.2038 15.08817670 27220,6917.949000000001,95.439,541.268,538.359,0.0
50161.0,STARLINK-3304,PAYLOAD,2022-05-27 12:57:48,15.08832787,0.0001949,53.2162,343.8454,39.4003,320.7131,8.9051e-05,1.129e-05,0.0,0 STARLINK-3304,1 50161U 21125F   22147.54014461  .00001129  00000-0  89051-4 0  9995,2 50161  53.2162 343.8454 0001949  39.4003 320.7131 15.08832787 27798,6917.901999999999,95.438,541.116,538.419,0.0
50161.0,STARLINK-3304,PAYLOAD,2022-05-27 16:00:00,15.08839556,0.0002073,53.2146,343.2778,42.4953,285.284,-0.0009791,-0.00015837,0.0,0 STARLINK-3304,1 50161U 21125F   22147.66667824 -.00015837  00000-0 -97910-3 0  9990,2 50161  53.2146 343.2778 0002073  42.4953 285.2840 15.08839556 27333,6917.882,95.438,541.181,538.313,0.0
50161.0,STARLINK-3304,PAYLOAD,2022-05-27 22:00:01,15.08816529,0.0002259,53.2145,342.1566,39.2963,207.2441,0.0026583,0.00042246,0.0,0 STARLINK-3304,1 50161U 21125F   22147.91668981  .00042246  00000-0  26583-2 0  9992,2 50161  53.2145 342.1566 0002259  39.2963 207.2441 15.08816529  1301,6917.9519999999975,95.439,541.38,538.254,0.0
50161.0,STARLINK-3304,PAYLOAD,2022-05-28 06:00:02,15.08854543,0.0002116,53.2146,340.6587,39.9769,218.1478,-0.00061182,-0.00010016,0.0,0 STARLINK-3304,1 50161U 21125F   22148.25002315 -.00010016  00000-0 -61182-3 0  9990,2 50161  53.2146 340.6587 0002116  39.9769 218.1478 15.08854543 27421,6917.8359999999975,95.437,541.165,538.237,0.0
